{
  "type": "FeatureCollection",
  "features": [
    {
      "type": "Feature",
      "properties": {
        "norad_id": 34492,
        "name": "IRIDIUM 33 DEB",
        "group": "iridium-33-debris",
        "lat": -83.98986974252902,
        "lon": -59.62118771808748,
        "alt_km": 688.8392013878665,
        "timestamp": "2025-12-08T17:43:05.321699+00:00",
        "meta_object_name": "IRIDIUM 33 DEB",
        "meta_object_id": "1997-051GH",
        "meta_epoch": "2025-12-07T23:50:44.784960",
        "meta_mean_motion": 14.25534668,
        "meta_eccentricity": 0.0189621,
        "meta_inclination": 86.4724,
        "meta_ra_of_asc_node": 336.5463,
        "meta_arg_of_pericenter": 253.6464,
        "meta_mean_anomaly": 161.0806,
        "meta_ephemeris_type": 0,
        "meta_classification_type": "U",
        "meta_norad_cat_id": 34492,
        "meta_element_set_no": 999,
        "meta_rev_at_epoch": 84991,
        "meta_bstar": 0.0068533726,
        "meta_mean_motion_dot": 0.00019616,
        "meta_mean_motion_ddot": 0,
        "tle_line1": "1 34492U 97051GH  25341.99357390  .00019616  00000+0  68534-2 0  9994",
        "tle_line2": "2 34492  86.4724 336.5463 0189621 253.6464 161.0806 14.25534668849919"
      },
      "geometry": {
        "type": "Point",
        "coordinates": [
          -59.62118771808748,
          -83.98986974252902
        ]
      }
    },
    {
      "type": "Feature",
      "properties": {
        "norad_id": 34497,
        "name": "IRIDIUM 33 DEB",
        "group": "iridium-33-debris",
        "lat": 52.65662391743149,
        "lon": -130.78284062831992,
        "alt_km": 835.1186748091359,
        "timestamp": "2025-12-08T17:43:05.321710+00:00",
        "meta_object_name": "IRIDIUM 33 DEB",
        "meta_object_id": "1997-051GN",
        "meta_epoch": "2025-12-08T05:36:30.454848",
        "meta_mean_motion": 14.27433857,
        "meta_eccentricity": 0.00792669,
        "meta_inclination": 86.2781,
        "meta_ra_of_asc_node": 54.3266,
        "meta_arg_of_pericenter": 354.2573,
        "meta_mean_anomaly": 60.9681,
        "meta_ephemeris_type": 0,
        "meta_classification_type": "U",
        "meta_norad_cat_id": 34497,
        "meta_element_set_no": 999,
        "meta_rev_at_epoch": 86819,
        "meta_bstar": 0.00099948943,
        "meta_mean_motion_dot": 2.553e-05,
        "meta_mean_motion_ddot": 0,
        "tle_line1": "1 34497U 97051GN  25342.23368582  .00002553  00000+0  99949-3 0  9999",
        "tle_line2": "2 34497  86.2781  54.3266 0079266 354.2573  60.9681 14.27433857868192"
      },
      "geometry": {
        "type": "Point",
        "coordinates": [
          -130.78284062831992,
          52.65662391743149
        ]
      }
    },
    {
      "type": "Feature",
      "properties": {
        "norad_id": 34508,
        "name": "IRIDIUM 33 DEB",
        "group": "iridium-33-debris",
        "lat": 53.4585319155446,
        "lon": -80.57348648736648,
        "alt_km": 734.9371525911574,
        "timestamp": "2025-12-08T17:43:05.321721+00:00",
        "meta_object_name": "IRIDIUM 33 DEB",
        "meta_object_id": "1997-051GZ",
        "meta_epoch": "2025-12-07T19:25:27.527232",
        "meta_mean_motion": 14.38361799,
        "meta_eccentricity": 0.00657554,
        "meta_inclination": 86.3707,
        "meta_ra_of_asc_node": 104.7333,
        "meta_arg_of_pericenter": 188.9848,
        "meta_mean_anomaly": 171.0179,
        "meta_ephemeris_type": 0,
        "meta_classification_type": "U",
        "meta_norad_cat_id": 34508,
        "meta_element_set_no": 999,
        "meta_rev_at_epoch": 87238,
        "meta_bstar": 0.0028505421,
        "meta_mean_motion_dot": 8.927e-05,
        "meta_mean_motion_ddot": 0,
        "tle_line1": "1 34508U 97051GZ  25341.80934638  .00008927  00000+0  28505-2 0  9995",
        "tle_line2": "2 34508  86.3707 104.7333 0065755 188.9848 171.0179 14.38361799872383"
      },
      "geometry": {
        "type": "Point",
        "coordinates": [
          -80.57348648736648,
          53.4585319155446
        ]
      }
    },
    {
      "type": "Feature",
      "properties": {
        "norad_id": 34521,
        "name": "IRIDIUM 33 DEB",
        "group": "iridium-33-debris",
        "lat": -53.929309949226486,
        "lon": 27.323894808680414,
        "alt_km": 689.2155810699196,
        "timestamp": "2025-12-08T17:43:05.321732+00:00",
        "meta_object_name": "IRIDIUM 33 DEB",
        "meta_object_id": "1997-051HN",
        "meta_epoch": "2025-12-08T04:50:07.608480",
        "meta_mean_motion": 14.63305419,
        "meta_eccentricity": 0.00011357,
        "meta_inclination": 86.38,
        "meta_ra_of_asc_node": 32.5459,
        "meta_arg_of_pericenter": 246.9783,
        "meta_mean_anomaly": 113.1309,
        "meta_ephemeris_type": 0,
        "meta_classification_type": "U",
        "meta_norad_cat_id": 34521,
        "meta_element_set_no": 999,
        "meta_rev_at_epoch": 88406,
        "meta_bstar": 0.0012081732,
        "meta_mean_motion_dot": 6.254e-05,
        "meta_mean_motion_ddot": 0,
        "tle_line1": "1 34521U 97051HN  25342.20147695  .00006254  00000+0  12082-2 0  9998",
        "tle_line2": "2 34521  86.3800  32.5459 0001135 246.9783 113.1309 14.63305419884069"
      },
      "geometry": {
        "type": "Point",
        "coordinates": [
          27.323894808680414,
          -53.929309949226486
        ]
      }
    },
    {
      "type": "Feature",
      "properties": {
        "norad_id": 34525,
        "name": "IRIDIUM 33 DEB",
        "group": "iridium-33-debris",
        "lat": 58.72612421228894,
        "lon": 54.54601199697904,
        "alt_km": 740.0320518600065,
        "timestamp": "2025-12-08T17:43:05.321743+00:00",
        "meta_object_name": "IRIDIUM 33 DEB",
        "meta_object_id": "1997-051HS",
        "meta_epoch": "2025-12-08T04:25:55.398144",
        "meta_mean_motion": 14.42888438,
        "meta_eccentricity": 0.00066276,
        "meta_inclination": 86.373,
        "meta_ra_of_asc_node": 48.7879,
        "meta_arg_of_pericenter": 105.7109,
        "meta_mean_anomaly": 319.5931,
        "meta_ephemeris_type": 0,
        "meta_classification_type": "U",
        "meta_norad_cat_id": 34525,
        "meta_element_set_no": 999,
        "meta_rev_at_epoch": 88022,
        "meta_bstar": 0.00055007035,
        "meta_mean_motion_dot": 1.856e-05,
        "meta_mean_motion_ddot": 0,
        "tle_line1": "1 34525U 97051HS  25342.18466896  .00001856  00000+0  55007-3 0  9994",
        "tle_line2": "2 34525  86.3730  48.7879 0006627 105.7109 319.5931 14.42888438880226"
      },
      "geometry": {
        "type": "Point",
        "coordinates": [
          54.54601199697904,
          58.72612421228894
        ]
      }
    },
    {
      "type": "Feature",
      "properties": {
        "norad_id": 34529,
        "name": "IRIDIUM 33 DEB",
        "group": "iridium-33-debris",
        "lat": -13.383461886979408,
        "lon": 36.2507581869478,
        "alt_km": 763.8681729998525,
        "timestamp": "2025-12-08T17:43:05.321754+00:00",
        "meta_object_name": "IRIDIUM 33 DEB",
        "meta_object_id": "1997-051HW",
        "meta_epoch": "2025-12-08T04:26:38.874624",
        "meta_mean_motion": 14.40610073,
        "meta_eccentricity": 0.00042345,
        "meta_inclination": 86.3644,
        "meta_ra_of_asc_node": 37.3532,
        "meta_arg_of_pericenter": 192.5106,
        "meta_mean_anomaly": 167.5989,
        "meta_ephemeris_type": 0,
        "meta_classification_type": "U",
        "meta_norad_cat_id": 34529,
        "meta_element_set_no": 999,
        "meta_rev_at_epoch": 88076,
        "meta_bstar": 0.00018799813,
        "meta_mean_motion_dot": 6.19e-06,
        "meta_mean_motion_ddot": 0,
        "tle_line1": "1 34529U 97051HW  25342.18517216  .00000619  00000+0  18800-3 0  9997",
        "tle_line2": "2 34529  86.3644  37.3532 0004234 192.5106 167.5989 14.40610073880766"
      },
      "geometry": {
        "type": "Point",
        "coordinates": [
          36.2507581869478,
          -13.383461886979408
        ]
      }
    },
    {
      "type": "Feature",
      "properties": {
        "norad_id": 34538,
        "name": "IRIDIUM 33 DEB",
        "group": "iridium-33-debris",
        "lat": 25.01723411822029,
        "lon": -174.43230469201043,
        "alt_km": 772.91770927172,
        "timestamp": "2025-12-08T17:43:05.321764+00:00",
        "meta_object_name": "IRIDIUM 33 DEB",
        "meta_object_id": "1997-051JF",
        "meta_epoch": "2025-12-07T06:38:08.723904",
        "meta_mean_motion": 14.42600183,
        "meta_eccentricity": 0.00334838,
        "meta_inclination": 86.2771,
        "meta_ra_of_asc_node": 7.9488,
        "meta_arg_of_pericenter": 346.4929,
        "meta_mean_anomaly": 141.5957,
        "meta_ephemeris_type": 0,
        "meta_classification_type": "U",
        "meta_norad_cat_id": 34538,
        "meta_element_set_no": 999,
        "meta_rev_at_epoch": 87677,
        "meta_bstar": 0.0014728578,
        "meta_mean_motion_dot": 4.942e-05,
        "meta_mean_motion_ddot": 0,
        "tle_line1": "1 34538U 97051JF  25341.27648986  .00004942  00000+0  14729-2 0  9993",
        "tle_line2": "2 34538  86.2771   7.9488 0033483 346.4929 141.5957 14.42600183876776"
      },
      "geometry": {
        "type": "Point",
        "coordinates": [
          -174.43230469201043,
          25.01723411822029
        ]
      }
    }
  ]
}